OSCAR 7 (AO-7)          
1 07530U 74089B   18136.17529149 -.00000043  00000-0  96995-5 0  9991
2 07530 101.6845 103.9787 0012458  38.7442  30.6386 12.53632568990583
UOSAT 2 (UO-11)         
1 14781U 84021B   18136.15356751  .00000102  00000-0  18766-4 0  9993
2 14781  97.6522 173.7305 0008467 177.9687 182.1563 14.83003329839694
LUSAT (LO-19)           
1 20442U 90005G   18135.81202884 -.00000006  00000-0  14131-4 0  9998
2 20442  98.6084  74.5062 0010670 243.8220 116.1867 14.32895052479254
ITAMSAT (IO-26)         
1 22826U 93061D   18135.98965689 -.00000008  00000-0  14630-4 0  9994
2 22826  98.8545 111.5678 0010022  72.3878 287.8397 14.30361260285151
RADIO ROSTO (RS-15)     
1 23439U 94085A   18135.96011993 -.00000045  00000-0 -79396-4 0  9992
2 23439  64.8195  40.9532 0158172 187.9277 250.0047 11.27566751962932
JAS-2 (FO-29)           
1 24278U 96046B   18135.84162825 -.00000042  00000-0 -70030-5 0  9995
2 24278  98.5200 339.0534 0350086 194.6876 164.3885 13.53083731 73615
TECHSAT 1B (GO-32)      
1 25397U 98043D   18135.91267383 -.00000012  00000-0  14025-4 0  9997
2 25397  98.6480  76.8888 0002375 101.5430 258.6016 14.23645303 30911
ISS (ZARYA)             
1 25544U 98067A   18135.91986111  .00002094  00000-0  38967-4 0  9996
2 25544  51.6401 179.5602 0004023  91.4156 267.1378 15.54060243113496
PCSAT (NO-44)           
1 26931U 01043C   18136.12353729 -.00000021  00000-0  23597-4 0  9994
2 26931  67.0509 312.1432 0007411 279.0796  80.9466 14.30504761867969
SAUDISAT 1C (SO-50)     
1 27607U 02058C   18135.74580982  .00000010  00000-0  22246-4 0  9999
2 27607  64.5545 189.1977 0061690 335.5937  24.2246 14.75447789828040
CUTE-1 (CO-55)          
1 27844U 03031E   18136.01600101  .00000057  00000-0  45455-4 0  9999
2 27844  98.6874 145.1462 0011030 103.4820 256.7587 14.22112056771622
CUBESAT XI-IV (CO-57)   
1 27848U 03031J   18135.96637549  .00000042  00000-0  39131-4 0  9990
2 27848  98.6961 145.4847 0010851 112.7212 247.5114 14.21716131771459
MOZHAYETS 4 (RS-22)     
1 27939U 03042A   18136.30912663  .00000100  00000-0  26387-4 0  9999
2 27939  97.9854 276.2757 0011690 247.1823 135.9637 14.66684442782145
CUBESAT XI-V (CO-58)    
1 28895U 05043F   18135.93819971  .00000131  00000-0  33953-4 0  9991
2 28895  97.9047 288.7083 0017199 166.7647 193.4011 14.63543048668928
CUTE-1.7+APD II (CO-65) 
1 32785U 08021C   18135.77239956  .00000243  00000-0  31985-4 0  9991
2 32785  97.5484 149.4965 0014105 140.6884 219.5360 14.88113361544289
DELFI-C3 (DO-64)        
1 32789U 08021G   18136.15398478  .00001619  00000-0  11506-3 0  9997
2 32789  97.5150 191.7719 0013669  53.2617 306.9863 15.06007589546968
SEEDS II (CO-66)        
1 32791U 08021J   18135.71251342  .00000348  00000-0  40951-4 0  9994
2 32791  97.5379 154.7246 0014840 123.1043 237.1602 14.90540265544598
YUBILEINY (RS-30)       
1 32953U 08025A   18136.16744017  .00000025  00000-0  11298-3 0  9997
2 32953  82.5065  32.5934 0018168 281.6653  78.2388 12.43082899452790
KKS-1 (KISEKI)          
1 33499U 09002H   18135.89566345  .00000127  00000-0  26771-4 0  9990
2 33499  98.3554 316.6158 0010050  42.0069 318.1908 14.75325366499993
SWISSCUBE               
1 35932U 09051B   18135.93479634  .00000137  00000-0  42107-4 0  9999
2 35932  98.5410 286.3282 0006640 315.5926  44.4738 14.56155128458701
BEESAT                  
1 35933U 09051C   18136.30787146  .00000124  00000-0  39058-4 0  9999
2 35933  98.5449 288.2376 0005085 332.1809  27.9115 14.56259826458903
ITUPSAT 1               
1 35935U 09051E   18135.93214417  .00000100  00000-0  34221-4 0  9996
2 35935  98.5561 288.1061 0007287 324.5184  35.5527 14.55437218458608
XIWANG-1 (HOPE-1)       
1 36122U 09072B   18135.93839812 -.00000039  00000-0  79710-5 0  9995
2 36122 100.0770 152.0802 0007488 181.4211 178.6882 13.16344559404306
JUGNU                   
1 37839U 11058B   18135.57866937  .00000340  00000-0  39036-4 0  9996
2 37839  19.9607 234.9834 0018754 247.5604 230.4411 14.12619061340643
SRMSAT                  
1 37841U 11058D   18135.54155256  .00000308  00000-0  24116-4 0  9998
2 37841  19.9722 283.7383 0011865 131.5486 299.4200 14.10605957340177
M-CUBED & EXP-1 PRIME   
1 37855U 11061F   18135.68484835  .00001549  00000-0  86692-4 0  9995
2 37855 101.7186 181.5959 0176987 178.3996 181.7819 15.04337917356293
STRAND-1                
1 39090U 13009E   18135.82714671  .00000030  00000-0  25911-4 0  9993
2 39090  98.5249 342.6293 0010005  39.4468 320.7444 14.35024308273162
SOMP                    
1 39134U 13015E   18135.87684200  .00001343  00000-0  73095-4 0  9992
2 39134  64.8633 231.4200 0014985 216.2805 143.7307 15.19097224279996
BEESAT-3                
1 39135U 13015F   18135.91180247  .00001151  00000-0  68252-4 0  9996
2 39135  64.8699 244.2481 0025116 238.2748 121.5930 15.16628473279753
BEESAT-2                
1 39136U 13015G   18136.33195310  .00001054  00000-0  64322-4 0  9997
2 39136  64.8694 245.5929 0023676 238.9587 120.9214 15.16093689279761
ZACUBE-1 (TSHEPISOSAT)  
1 39417U 13066B   18136.15287875  .00000203  00000-0  32201-4 0  9999
2 39417  97.5897 166.4977 0057539 259.8191  99.6530 14.80926261242059
GOMX 1                  
1 39430U 13066Q   18136.27824812  .00000235  00000-0  51080-4 0  9996
2 39430  97.6956 115.4549 0153079  71.4386 290.3375 14.59069083238508
EAGLE 2                 
1 39436U 13066W   18136.16446877  .01871717  26611-2  25310-2 0  9996
2 39436  97.7081 271.9945 0017579 285.2013  74.7324 16.06763891248329
CUBEBUG-2 (LO-74)       
1 39440U 13066AA  18135.93206079  .00000224  00000-0  38449-4 0  9990
2 39440  97.6029 153.0815 0079109 300.8944  58.4504 14.75661645239962
FUNCUBE-1 (AO-73)       
1 39444U 13066AE  18135.62537299  .00000275  00000-0  40526-4 0  9996
2 39444  97.5907 167.4822 0056688 256.9578 102.5303 14.81700536240249
UWE-3                   
1 39446U 13066AG  18135.94234375  .00000229  00000-0  37322-4 0  9991
2 39446  97.5949 159.3080 0068639 281.1988  78.1513 14.78195259239769
SPROUT                  
1 39770U 14029E   18136.29056604  .00000816  00000-0  97662-4 0  9992
2 39770  97.8743 237.6048 0007808 321.3268  38.7386 14.86815255215620
UNISAT-6                
1 40012U 14033C   18136.23691702  .00000220  00000-0  40498-4 0  9990
2 40012  97.8127  13.6855 0057283 303.2074  56.3651 14.73810251209992
DUCHIFAT-1              
1 40021U 14033M   18136.30044522  .00000437  00000-0  50920-4 0  9991
2 40021  97.9170  54.9607 0011528 286.6199  73.3752 14.90288662212201
FUNCUBE-3 (EO-79)       
1 40025U 14033R   18136.28824595  .00000305  00000-0  38737-4 0  9994
2 40025  97.9066  51.7500 0011135 293.6459  66.3589 14.88701345212044
NUDT-PHONESAT           
1 40900U 15049B   18135.94312818  .00002132  00000-0  98476-4 0  9992
2 40900  97.4411 144.5696 0014748 136.7549 223.4847 15.21198099147013
ZDPS 2A                 
1 40901U 15049C   18136.28560019  .00000947  00000-0  51171-4 0  9992
2 40901  97.4593 143.1319 0014739 142.8764 217.3492 15.17040099146826
ZDPS 2B                 
1 40902U 15049D   18136.18901947  .00000949  00000-0  51530-4 0  9992
2 40902  97.4491 141.1118 0014887 140.6559 219.5758 15.16835251146797
XW-2A                   
1 40903U 15049E   18136.15231505  .00001995  00000-0  51336-4 0  9992
2 40903  97.3865 170.6862 0015408 140.6316 219.6053 15.40383086148877
KAITUO 1A               
1 40904U 15049F   18136.30965659  .00000343  00000-0  21834-4 0  9990
2 40904  97.4590 140.4902 0015568 142.4299 312.8780 15.14992451146673
2015-049G               
1 40905U 15049G   18136.22621811  .00000454  00000-0  28567-4 0  9994
2 40905  97.4589 138.5363 0016962 137.0397 223.2163 15.13949439146586
XW-2C                   
1 40906U 15049H   18136.22249172  .00000707  00000-0  41129-4 0  9991
2 40906  97.4601 140.3011 0016214 136.1533 224.0990 15.15155271146655
XW-2D                   
1 40907U 15049J   18136.17810401  .00000789  00000-0  45310-4 0  9991
2 40907  97.4575 139.9581 0015624 134.1346 226.1175 15.15303529146655
LILACSAT 2              
1 40908U 15049K   18135.94784082  .00000408  00000-0  26361-4 0  9994
2 40908  97.4686 139.1324 0017185 136.7726 223.4857 15.13489586146495
XW-2F                   
1 40910U 15049M   18136.21769268  .00001171  00000-0  63386-4 0  9993
2 40910  97.4577 141.2541 0016444 130.2141 230.0534 15.16477164146611
XW-2B                   
1 40911U 15049N   18136.26047456  .00000767  00000-0  44197-4 0  9996
2 40911  97.4611 140.5648 0015527 134.3611 225.8896 15.15248278146567
KAITUO 1B               
1 40912U 15049P   18136.27155027  .00001734  00000-0  86649-4 0  9995
2 40912  97.4509 144.0534 0016741 117.9037  10.0207 15.18690056146822
TIANWANG 1C (TW-1C)     
1 40926U 15051B   18136.09416197  .00010726  00000-0  20241-3 0  9997
2 40926  97.1857 178.5910 0011092  42.5855  39.5683 15.48573970148346
TIANWANG 1A (TW-1A)     
1 40928U 15051D   18135.95366125  .00003470  00000-0  93016-4 0  9997
2 40928  97.1879 170.5776 0013768  79.4248  38.6884 15.38562426147829
LAPAN-A2 (IO-86)        
1 40931U 15052B   18135.56934888  .00000808  00000-0  23490-4 0  9997
2 40931   5.9997  22.7020 0013551 271.4161  88.4429 14.76576308142175
E-ST@R-II               
1 41459U 16025D   18135.71884075  .00001727  00000-0  94644-4 0  9993
2 41459  98.1381 196.6813 0170219 257.3815 100.8332 15.04298385112545
AAUSAT 4                
1 41460U 16025E   18136.12661014  .00001211  00000-0  67236-4 0  9992
2 41460  98.1314 197.5641 0161215 252.0162 106.3449 15.05687184112668
NUSAT 1 (LO-87)         
1 41557U 16033B   18136.21530448  .00001499  00000-0  57212-4 0  9995
2 41557  97.4364 220.4952 0012322 271.8080  88.1748 15.28189376109272
BEESAT-4                
1 41619U 16040W   18135.85564861  .00001594  00000-0  72702-4 0  9994
2 41619  97.4174 199.4465 0011210 352.4907   7.6159 15.22036482 93179
ALSAT 1N                
1 41789U 16059G   18136.24844348  .00000111  00000-0  30118-4 0  9996
2 41789  98.1208 199.4773 0028249 185.3358 174.7550 14.64151385 87346
CAS-2T & KS-1Q          
1 41847U 16066G   18135.75419763  .00000075  00000-0  22483-4 0  9998
2 41847  98.7528 163.9660 0365863 341.0218  17.7624 14.37889449 79668
NAYIF-1 (EO-88)         
1 42017U 17008BX  18135.93191055  .00001840  00000-0  78091-4 0  9993
2 42017  97.4503 201.1786 0007874 125.7307 234.4664 15.24346185 69159
LILACSAT-1              
1 42725U 98067ME  18136.32162685  .00018888  00000-0  17187-3 0  9992
2 42725  51.6341 160.4526 0004708  88.9205 271.2330 15.67972282 55510
MAX VALIER SAT          
1 42778U 17036P   18136.21339265  .00001235  00000-0  58325-4 0  9993
2 42778  97.4059 196.4536 0012905 174.0943 186.0447 15.21241504 49641
FOX-1B (AO-91)          
1 43017U 17073E   18135.78637835  .00001122  00000-0  93196-4 0  9996
2 43017  97.7064  68.2684 0260513  17.4371 343.5580 14.78035703 26323
FOX-1D (AO-92)          
1 43137U 18004AC  18135.83165593  .00001181  00000-0  53832-4 0  9995
2 43137  97.5361 198.4402 0008797 204.6480 155.4337 15.22642028 18788
